SHIYAN-30 04            
1 68140U 26048B   26087.91478412  .00002927  00000+0  28782-3 0  9997
2 68140  34.9927  28.8506 0001686 354.9978   5.0710 14.91733095  2377
